{
    "links": {
        "self": "http://www.neowsapp.com/rest/v1/neo/3484836?api_key=iIulBulltgU6a56xZRHN4H3l9WmuAYTsLGpBGhQ2"
    },
    "id": "3484836",
    "neo_reference_id": "3484836",
    "name": "(2010 AL2)",
    "designation": "2010 AL2",
    "nasa_jpl_url": "http://ssd.jpl.nasa.gov/sbdb.cgi?sstr=3484836",
    "absolute_magnitude_h": 26.7,
    "estimated_diameter": {
        "kilometers": {
            "estimated_diameter_min": 0.0121494041,
            "estimated_diameter_max": 0.0271668934
        },
        "meters": {
            "estimated_diameter_min": 12.14940408,
            "estimated_diameter_max": 27.1668934089
        },
        "miles": {
            "estimated_diameter_min": 0.0075492874,
            "estimated_diameter_max": 0.0168807197
        },
        "feet": {
            "estimated_diameter_min": 39.8602508817,
            "estimated_diameter_max": 89.1302305717
        }
    },
    "is_potentially_hazardous_asteroid": false,
    "close_approach_data": [
        {
            "close_approach_date": "2010-01-11",
            "close_approach_date_full": "2010-Jan-11 09:26",
            "epoch_date_close_approach": 1263201960000,
            "relative_velocity": {
                "kilometers_per_second": "7.2809296962",
                "kilometers_per_hour": "26211.3469063974",
                "miles_per_hour": "16286.7116374779"
            },
            "miss_distance": {
                "astronomical": "0.0296043628",
                "lunar": "11.5160971292",
                "kilometers": "4428749.617587236",
                "miles": "2751897.4051904168"
            },
            "orbiting_body": "Earth"
        },
        {
            "close_approach_date": "2153-12-13",
            "close_approach_date_full": "2153-Dec-13 21:21",
            "epoch_date_close_approach": 5804947260000,
            "relative_velocity": {
                "kilometers_per_second": "16.0158496722",
                "kilometers_per_hour": "57657.0588200273",
                "miles_per_hour": "35825.8541318108"
            },
            "miss_distance": {
                "astronomical": "0.3241160111",
                "lunar": "126.0811283179",
                "kilometers": "48487064.893456357",
                "miles": "30128465.0493054466"
            },
            "orbiting_body": "Earth"
        }
    ],
    "orbital_data": {
        "orbit_id": "9",
        "orbit_determination_date": "2017-04-06 08:58:41",
        "first_observation_date": "2010-01-07",
        "last_observation_date": "2010-01-13",
        "data_arc_in_days": 6,
        "observations_used": 25,
        "orbit_uncertainty": "8",
        "minimum_orbit_intersection": ".0285563",
        "jupiter_tisserand_invariant": "4.001",
        "epoch_osculation": "2455205.5",
        "eccentricity": ".4315674221029504",
        "semi_major_axis": "1.757080223011938",
        "inclination": "7.525823628691963",
        "ascending_node_longitude": "106.1837906764155",
        "orbital_period": "850.7183735573503",
        "perihelion_distance": ".9987816407385988",
        "perihelion_argument": "20.65469004458161",
        "aphelion_distance": "2.515378805285277",
        "perihelion_time": "2455221.122448788306",
        "mean_anomaly": "353.3890206928615",
        "mean_motion": ".4231717701060455",
        "equinox": "J2000",
        "orbit_class": {
            "orbit_class_type": "APO",
            "orbit_class_description": "Near-Earth asteroid orbits which cross the Earth’s orbit similar to that of 1862 Apollo",
            "orbit_class_range": "a (semi-major axis) > 1.0 AU; q (perihelion) < 1.017 AU"
        }
    },
    "is_sentry_object": false
}